CUBEBUG-2 (LO-74)       
1 39440U 13066AA  26156.80918561  .00005560  00000+0  51354-3 0  9990
2 39440  97.8908 105.7402 0059434  65.9901 294.7524 14.93668030675299
FUNCUBE-1 (AO-73)       
1 39444U 13066AE  26158.17904857  .00007594  00000+0  47302-3 0  9996
2 39444  97.8278 129.4171 0034673 235.9808 123.8126 15.09372001678158
UWE-3                   
1 39446U 13066AG  26157.65461373  .00005074  00000+0  43622-3 0  9993
2 39446  97.8693 113.6587 0049030 356.7161   3.3731 14.96941234676005
UNISAT-6                
1 40012U 14033C   26158.18241120  .00003829  00000+0  41302-3 0  9993
2 40012  97.7873 311.0720 0046469 101.3113 259.3330 14.88192677644678
DUCHIFAT-1              
1 40021U 14033M   26157.65384402  .00106168  00000+0  11801-2 0  9995
2 40021  98.0457 215.3530 0004526 133.6949 226.4683 15.62532065654105
QB50P1                  
1 40025U 14033R   26158.26366557  .00008812  00000+0  43536-3 0  9996
2 40025  98.0971 168.7150 0007081 255.6784 104.3662 15.18108574651529
LILACSAT-2              
1 40908U 15049K   26158.27399963  .00017716  00000+0  30517-3 0  9990
2 40908  97.4658 194.7406 0005304 293.2449  66.8244 15.51117189594218
FOX-1A (AO-85)          
1 40967U 15058D   26157.62044007  .00003329  00000+0  30158-3 0  9995
2 40967  64.7764 311.8208 0129891  60.7292 300.6731 14.90916620111990
CAS-2T & KS-1Q          
1 41847U 16066G   26157.64349772  .00001927  00000+0  27752-3 0  9990
2 41847  98.3816 233.5001 0342410 161.3823 200.0263 14.44659406503276
RADFXSAT (FOX-1B)       
1 43017U 17073E   26157.62389250  .00011671  00000+0  50849-3 0  9993
2 43017  97.4716  25.0553 0151174   5.8791 354.4168 15.12539966463797
DIWATA-2B               
1 43678U 18084H   26158.23324284  .00002520  00000+0  20546-3 0  9997
2 43678  98.1166 354.0102 0011948 202.9859 157.0831 15.00403779414723
ES'HAIL 2               
1 43700U 18090A   26158.20812332  .00000158  00000+0  00000+0 0  9997
2 43700   0.0112  38.9909 0001928  72.2005 245.1501  1.00273643 27579
FOX-1CLIFF (AO-95)      
1 43770U 18099N   26157.13129568  .00016192  00000+0  62215-3 0  9991
2 43770  97.4387 217.4205 0009175  36.3927 323.7934 15.26474352411538
ITASAT                  
1 43786U 18099AE  26157.94279424  .00008194  00000+0  39461-3 0  9994
2 43786  97.4030 209.6599 0013203  35.5041 324.7070 15.18928308411352
JY1SAT (JO-97)          
1 43803U 18099AX  26157.98157684  .00019649  00000+0  61150-3 0  9998
2 43803  97.4133 220.7824 0004200 312.9270  47.1619 15.33329826412065
UWE-4                   
1 43880U 18111E   26157.59884956  .00041427  00000+0  86289-3 0  9993
2 43880  97.5857  85.5068 0007550  22.5436 337.6143 15.45454015409146
TIANYAN 01              
1 44881U 19093C   26158.28436918  .00001097  00000+0  12977-3 0  9995
2 44881  97.7528 230.7576 0014833 116.4033 243.8707 14.86503021349942
RS-44 & BREEZE-KM R/B   
1 44909U 19096E   26157.99794811  .00000012  00000+0  79316-6 0  9994
2 44909  82.5218 346.4772 0217716 167.9357 192.7080 12.79748571301045
SALSAT                  
1 46495U 20068K   26157.74488443  .00010129  00000+0  35498-3 0  9991
2 46495  97.8851 160.1753 0009049 349.8452  10.2602 15.29647918313761
XW-3 (CAS-9)            
1 50466U 21131B   26158.26647473  .00000599  00000+0  19867-3 0  9996
2 50466  98.4974 250.7100 0005169 119.0560 241.1148 14.41348740233681
GREENCUBE (IO-117)      
1 53109U 22080E   26152.46502029 -.00000003  00000+0  00000+0 0  9996
2 53109  70.1435 303.7143 0008869 293.3663  66.6064  6.42583280 91055
UMKA 1 (RS40S)          
1 57172U 23091G   26157.89512479  .00007192  00000+0  32950-3 0  9993
2 57172  97.5051 216.6327 0013722 150.0105 210.1919 15.20699091162447
CUBESX-HSE 3 (RS42S)    
1 57178U 23091N   26157.97844652  .00015529  00000+0  52018-3 0  9999
2 57178  97.5091 223.4386 0012090 126.0896 234.1466 15.30955946162869
MONITOR-3 (RS58S)       
1 57180U 23091Q   26157.98058525  .00012731  00000+0  47259-3 0  9992
2 57180  97.5084 221.3533 0012983 132.3816 227.8524 15.27635126162739
MONITOR-4 (RS57S)       
1 57182U 23091S   26157.96023685  .00011431  00000+0  42349-3 0  9992
2 57182  97.5077 221.3034 0012956 132.7408 227.4924 15.27730245162738
MONITOR-2 (RS39S)       
1 57184U 23091U   26157.96942665  .00006069  00000+0  29429-3 0  9997
2 57184  97.5074 216.3190 0012276 142.5661 217.6431 15.18814848162409
SVYATOBOR 1 (RS60S)     
1 57187U 23091X   26157.96462726  .00010042  00000+0  38749-3 0  9996
2 57187  97.5089 221.7264 0010843 125.0692 235.1565 15.26440940162756
VIZARD-METEO (RS38S)    
1 57189U 23091Z   26157.98391511  .00019103  00000+0  55123-3 0  9995
2 57189  97.5090 227.2675 0008740 107.8954 252.3243 15.35699957163129
POLYTECH-UNIVERSE 3 (R*)
1 57191U 23091AB  26157.99797433  .00005535  00000+0  26684-3 0  9996
2 57191  97.5049 215.8519 0016168 159.6766 200.5115 15.19014607162403
UTMN 2 (RS27S)          
1 57203U 23091AP  26158.00163510  .00015362  00000+0  50179-3 0  9991
2 57203  97.5087 225.0835 0009466 114.0102 246.2131 15.31800053162985
